start=new Date('2023-05-11T00:00:00.000Z').valueOf();
sats=[{"LAUNCH_DATE":"2022-01-19","EPHEMERIS_TYPE":"0","ELEMENT_SET_NO":"999","EPOCH":"2023-05-10T17:00:58.148640","OBJECT_NAME":"STARLINK-3180","SEMIMAJOR_AXIS":"6917.856","ECCENTRICITY":"0.00010490","ARG_OF_PERICENTER":"101.6690","PERIAPSIS":"538.995","BSTAR":"0.00022578000000","INCLINATION":"53.2158","REV_AT_EPOCH":"7264","TLE_LINE2":"2 51137  53.2158 260.8376 0001049 101.6690 258.4419 15.08848037 72648","MEAN_MOTION":"15.08848037","PERIOD":"95.437","SITE":"AFETR","DECAY_DATE":null,"MEAN_ANOMALY":"258.4419","MEAN_ELEMENT_THEORY":"SGP4","RA_OF_ASC_NODE":"260.8376","CLASSIFICATION_TYPE":"U","TIME_SYSTEM":"UTC","NORAD_CAT_ID":"51137","MEAN_MOTION_DOT":"0.00003308","OBJECT_ID":"2022-005AK","REF_FRAME":"TEME","GP_ID":"231567461","MEAN_MOTION_DDOT":"0.0000000000000","RCS_SIZE":"LARGE","COUNTRY_CODE":"US","OBJECT_TYPE":"PAYLOAD","CENTER_NAME":"EARTH","TLE_LINE1":"1 51137U 22005AK  23130.70900635  .00003308  00000-0  22578-3 0  9996","APOAPSIS":"540.447","FILE":"3904830"},{"PERIAPSIS":"538.969","ARG_OF_PERICENTER":"70.3565","OBJECT_NAME":"STARLINK-3177","SEMIMAJOR_AXIS":"6917.843","ECCENTRICITY":"0.00010690","EPOCH":"2023-05-10T14:00:48.223008","ELEMENT_SET_NO":"999","EPHEMERIS_TYPE":"0","LAUNCH_DATE":"2022-01-19","MEAN_ELEMENT_THEORY":"SGP4","MEAN_ANOMALY":"289.7542","DECAY_DATE":null,"SITE":"AFETR","PERIOD":"95.437","MEAN_MOTION":"15.08852198","TLE_LINE2":"2 51138  53.2166 261.4000 0001069  70.3565 289.7542 15.08852198 72618","REV_AT_EPOCH":"7261","INCLINATION":"53.2166","BSTAR":"0.00031069000000","RCS_SIZE":"LARGE","MEAN_MOTION_DDOT":"0.0000000000000","GP_ID":"231568213","REF_FRAME":"TEME","OBJECT_ID":"2022-005AL","MEAN_MOTION_DOT":"0.00004662","NORAD_CAT_ID":"51138","TIME_SYSTEM":"UTC","CLASSIFICATION_TYPE":"U","RA_OF_ASC_NODE":"261.4000","FILE":"3904830","APOAPSIS":"540.448","TLE_LINE1":"1 51138U 22005AL  23130.58389147  .00004662  00000-0  31069-3 0  9991","CENTER_NAME":"EARTH","OBJECT_TYPE":"PAYLOAD","COUNTRY_CODE":"US"},{"PERIAPSIS":"539.056","SEMIMAJOR_AXIS":"6917.866","OBJECT_NAME":"STARLINK-3172","ECCENTRICITY":"0.00009750","ARG_OF_PERICENTER":"69.5145","ELEMENT_SET_NO":"999","EPOCH":"2023-05-10T15:14:59.464608","LAUNCH_DATE":"2022-01-19","EPHEMERIS_TYPE":"0","SITE":"AFETR","DECAY_DATE":null,"MEAN_ANOMALY":"290.5952","MEAN_ELEMENT_THEORY":"SGP4","REV_AT_EPOCH":"7263","TLE_LINE2":"2 51139  53.2166 261.1724 0000975  69.5145 290.5952 15.08844725 72632","MEAN_MOTION":"15.08844725","PERIOD":"95.437","BSTAR":"0.00010526000000","INCLINATION":"53.2166","RCS_SIZE":"LARGE","OBJECT_ID":"2022-005AM","REF_FRAME":"TEME","GP_ID":"231568464","MEAN_MOTION_DDOT":"0.0000000000000","TIME_SYSTEM":"UTC","NORAD_CAT_ID":"51139","MEAN_MOTION_DOT":"0.00001388","RA_OF_ASC_NODE":"261.1724","CLASSIFICATION_TYPE":"U","FILE":"3904830","COUNTRY_CODE":"US","OBJECT_TYPE":"PAYLOAD","CENTER_NAME":"EARTH","TLE_LINE1":"1 51139U 22005AM  23130.63541047  .00001388  00000-0  10526-3 0  9994","APOAPSIS":"540.405"},{"COUNTRY_CODE":"US","OBJECT_TYPE":"PAYLOAD","CENTER_NAME":"EARTH","TLE_LINE1":"1 51140U 22005AN  23130.84612186  .00006118  00000-0  40198-3 0  9996","APOAPSIS":"540.263","FILE":"3904830","RA_OF_ASC_NODE":"260.2317","CLASSIFICATION_TYPE":"U","TIME_SYSTEM":"UTC","NORAD_CAT_ID":"51140","MEAN_MOTION_DOT":"0.00006118","OBJECT_ID":"2022-005AN","REF_FRAME":"TEME","GP_ID":"231567212","MEAN_MOTION_DDOT":"0.0000000000000","RCS_SIZE":"LARGE","BSTAR":"0.00040198000000","INCLINATION":"53.2175","REV_AT_EPOCH":"7266","TLE_LINE2":"2 51140  53.2175 260.2317 0000822  95.0415 265.0671 15.08856750 72666","MEAN_MOTION":"15.08856750","PERIOD":"95.436","SITE":"AFETR","DECAY_DATE":null,"MEAN_ANOMALY":"265.0671","MEAN_ELEMENT_THEORY":"SGP4","LAUNCH_DATE":"2022-01-19","EPHEMERIS_TYPE":"0","ELEMENT_SET_NO":"999","EPOCH":"2023-05-10T20:18:24.928704","ECCENTRICITY":"0.00008220","SEMIMAJOR_AXIS":"6917.829","OBJECT_NAME":"STARLINK-3175","ARG_OF_PERICENTER":"95.0415","PERIAPSIS":"539.126"},{"TLE_LINE1":"1 51141U 22005AP  23130.69428631  .00002908  00000-0  20067-3 0  9996","APOAPSIS":"540.443","COUNTRY_CODE":"US","OBJECT_TYPE":"PAYLOAD","CENTER_NAME":"EARTH","FILE":"3904830","GP_ID":"231566961","MEAN_MOTION_DDOT":"0.0000000000000","OBJECT_ID":"2022-005AP","REF_FRAME":"TEME","RCS_SIZE":"LARGE","RA_OF_ASC_NODE":"260.9019","CLASSIFICATION_TYPE":"U","NORAD_CAT_ID":"51141","MEAN_MOTION_DOT":"0.00002908","TIME_SYSTEM":"UTC","MEAN_ANOMALY":"261.0889","DECAY_DATE":null,"MEAN_ELEMENT_THEORY":"SGP4","SITE":"AFETR","INCLINATION":"53.2170","BSTAR":"0.00020067000000","MEAN_MOTION":"15.08845990","PERIOD":"95.437","REV_AT_EPOCH":"7264","TLE_LINE2":"2 51141  53.2170 260.9019 0001035  99.0221 261.0889 15.08845990 72643","ARG_OF_PERICENTER":"99.0221","SEMIMAJOR_AXIS":"6917.862","OBJECT_NAME":"STARLINK-3179","ECCENTRICITY":"0.00010350","PERIAPSIS":"539.011","EPHEMERIS_TYPE":"0","LAUNCH_DATE":"2022-01-19","EPOCH":"2023-05-10T16:39:46.337184","ELEMENT_SET_NO":"999"},{"MEAN_ANOMALY":"255.7331","DECAY_DATE":null,"MEAN_ELEMENT_THEORY":"SGP4","SITE":"AFETR","MEAN_MOTION":"15.08856446","PERIOD":"95.437","REV_AT_EPOCH":"7394","TLE_LINE2":"2 51142  53.2161 250.3718 0000952 104.3767 255.7331 15.08856446 73949","INCLINATION":"53.2161","BSTAR":"0.00022517000000","PERIAPSIS":"539.037","ARG_OF_PERICENTER":"104.3767","ECCENTRICITY":"0.00009520","SEMIMAJOR_AXIS":"6917.830","OBJECT_NAME":"STARLINK-3369","EPOCH":"2023-05-10T19:51:52.180992","ELEMENT_SET_NO":"999","EPHEMERIS_TYPE":"0","LAUNCH_DATE":"2022-01-19","FILE":"3904830","TLE_LINE1":"1 51142U 22005AQ  23130.82768728  .00003299  00000-0  22517-3 0  9992","APOAPSIS":"540.354","COUNTRY_CODE":"US","OBJECT_TYPE":"PAYLOAD","CENTER_NAME":"EARTH","RCS_SIZE":"LARGE","GP_ID":"231567713","MEAN_MOTION_DDOT":"0.0000000000000","OBJECT_ID":"2022-005AQ","REF_FRAME":"TEME","NORAD_CAT_ID":"51142","MEAN_MOTION_DOT":"0.00003299","TIME_SYSTEM":"UTC","RA_OF_ASC_NODE":"250.3718","CLASSIFICATION_TYPE":"U"},{"PERIAPSIS":"538.782","ECCENTRICITY":"0.00013870","SEMIMAJOR_AXIS":"6917.876","OBJECT_NAME":"STARLINK-3184","ARG_OF_PERICENTER":"91.6963","ELEMENT_SET_NO":"999","EPOCH":"2023-05-10T16:17:15.213120","LAUNCH_DATE":"2022-01-19","EPHEMERIS_TYPE":"0","SITE":"AFETR","DECAY_DATE":null,"MEAN_ANOMALY":"268.4188","MEAN_ELEMENT_THEORY":"SGP4","REV_AT_EPOCH":"7249","TLE_LINE2":"2 51143  53.2159 270.9736 0001387  91.6963 268.4188 15.08841372 72496","MEAN_MOTION":"15.08841372","PERIOD":"95.437","BSTAR":"0.00008511800000","INCLINATION":"53.2159","RCS_SIZE":"LARGE","OBJECT_ID":"2022-005AR","REF_FRAME":"TEME","GP_ID":"231567964","MEAN_MOTION_DDOT":"0.0000000000000","TIME_SYSTEM":"UTC","NORAD_CAT_ID":"51143","MEAN_MOTION_DOT":"0.00001067","RA_OF_ASC_NODE":"270.9736","CLASSIFICATION_TYPE":"U","FILE":"3904830","COUNTRY_CODE":"US","CENTER_NAME":"EARTH","OBJECT_TYPE":"PAYLOAD","TLE_LINE1":"1 51143U 22005AR  23130.67864830  .00001067  00000-0  85118-4 0  9995","APOAPSIS":"540.701"},{"RCS_SIZE":"LARGE","REF_FRAME":"TEME","OBJECT_ID":"2022-005AS","MEAN_MOTION_DDOT":"0.0000000000000","GP_ID":"231566713","TIME_SYSTEM":"UTC","MEAN_MOTION_DOT":"0.00005749","NORAD_CAT_ID":"51144","CLASSIFICATION_TYPE":"U","RA_OF_ASC_NODE":"260.8860","FILE":"3904830","CENTER_NAME":"EARTH","OBJECT_TYPE":"PAYLOAD","COUNTRY_CODE":"US","APOAPSIS":"539.947","TLE_LINE1":"1 51144U 22005AS  23130.69796626  .00005749  00000-0  37887-3 0  9995","PERIAPSIS":"539.485","OBJECT_NAME":"STARLINK-3185","SEMIMAJOR_AXIS":"6917.851","ECCENTRICITY":"0.00003340","ARG_OF_PERICENTER":"90.0605","ELEMENT_SET_NO":"999","EPOCH":"2023-05-10T16:45:04.284864","LAUNCH_DATE":"2022-01-19","EPHEMERIS_TYPE":"0","SITE":"AFETR","MEAN_ELEMENT_THEORY":"SGP4","DECAY_DATE":null,"MEAN_ANOMALY":"270.0425","TLE_LINE2":"2 51144  53.2155 260.8860 0000334  90.0605 270.0425 15.08849725 72646","REV_AT_EPOCH":"7264","PERIOD":"95.437","MEAN_MOTION":"15.08849725","BSTAR":"0.00037887000000","INCLINATION":"53.2155"},{"INCLINATION":"53.2172","BSTAR":"0.00030454000000","MEAN_MOTION":"15.08848468","PERIOD":"95.437","REV_AT_EPOCH":"7361","TLE_LINE2":"2 51145  53.2172 270.6925 0000977  67.9908 292.1187 15.08848468 73610","DECAY_DATE":null,"MEAN_ANOMALY":"292.1187","MEAN_ELEMENT_THEORY":"SGP4","SITE":"AFETR","EPHEMERIS_TYPE":"0","LAUNCH_DATE":"2022-01-19","EPOCH":"2023-05-10T17:47:20.365152","ELEMENT_SET_NO":"999","ARG_OF_PERICENTER":"67.9908","SEMIMAJOR_AXIS":"6917.855","OBJECT_NAME":"STARLINK-3365","ECCENTRICITY":"0.00009770","PERIAPSIS":"539.044","TLE_LINE1":"1 51145U 22005AT  23130.74120793  .00004563  00000-0  30454-3 0  9994","APOAPSIS":"540.395","COUNTRY_CODE":"US","CENTER_NAME":"EARTH","OBJECT_TYPE":"PAYLOAD","FILE":"3904724","RA_OF_ASC_NODE":"270.6925","CLASSIFICATION_TYPE":"U","NORAD_CAT_ID":"51145","MEAN_MOTION_DOT":"0.00004563","TIME_SYSTEM":"UTC","GP_ID":"231541776","MEAN_MOTION_DDOT":"0.0000000000000","OBJECT_ID":"2022-005AT","REF_FRAME":"TEME","RCS_SIZE":"LARGE"},{"OBJECT_TYPE":"PAYLOAD","CENTER_NAME":"EARTH","COUNTRY_CODE":"US","APOAPSIS":"540.604","TLE_LINE1":"1 51146U 22005AU  23130.77252154  .00005394  00000-0  35657-3 0  9998","FILE":"3904728","REF_FRAME":"TEME","OBJECT_ID":"2022-005AU","MEAN_MOTION_DDOT":"0.0000000000000","GP_ID":"231541832","RCS_SIZE":"LARGE","CLASSIFICATION_TYPE":"U","RA_OF_ASC_NODE":"260.5639","TIME_SYSTEM":"UTC","MEAN_MOTION_DOT":"0.00005394","NORAD_CAT_ID":"51146","SITE":"AFETR","MEAN_ELEMENT_THEORY":"SGP4","MEAN_ANOMALY":"279.2827","DECAY_DATE":null,"BSTAR":"0.00035657000000","INCLINATION":"53.2165","TLE_LINE2":"2 51146  53.2165 260.5639 0001307  80.8313 279.2827 15.08855045 73767","REV_AT_EPOCH":"7376","PERIOD":"95.437","MEAN_MOTION":"15.08855045","ECCENTRICITY":"0.00013070","SEMIMAJOR_AXIS":"6917.834","OBJECT_NAME":"STARLINK-3354","ARG_OF_PERICENTER":"80.8313","PERIAPSIS":"538.795","LAUNCH_DATE":"2022-01-19","EPHEMERIS_TYPE":"0","ELEMENT_SET_NO":"999","EPOCH":"2023-05-10T18:32:25.861056"}];
